[{"OBJECT_NAME":"ONEWEB-0183","OBJECT_ID":"2021-031K","EPOCH":"2026-03-09T16:56:14.764416","MEAN_MOTION":13.14502732,"ECCENTRICITY":0.00015796,"INCLINATION":87.8987,"RA_OF_ASC_NODE":309.5571,"ARG_OF_PERICENTER":74.0743,"MEAN_ANOMALY":286.0561,"EPHEMERIS_TYPE":0,"CLASSIFICATION_TYPE":"U","NORAD_CAT_ID":48219,"ELEMENT_SET_NO":999,"REV_AT_EPOCH":23525,"BSTAR":-0.00024600886,"MEAN_MOTION_DOT":-7.8e-7,"MEAN_MOTION_DDOT":0},{"OBJECT_NAME":"THORAD DELTA 1 DEB","OBJECT_ID":"1974-089DL","EPOCH":"2026-03-09T13:52:51.288096","MEAN_MOTION":13.46801476,"ECCENTRICITY":0.0202156,"INCLINATION":100.8782,"RA_OF_ASC_NODE":106.7696,"ARG_OF_PERICENTER":85.9738,"MEAN_ANOMALY":67.112,"EPHEMERIS_TYPE":0,"CLASSIFICATION_TYPE":"U","NORAD_CAT_ID":8784,"ELEMENT_SET_NO":999,"REV_AT_EPOCH":51895,"BSTAR":0.019065,"MEAN_MOTION_DOT":0.0001303,"MEAN_MOTION_DDOT":0}]
